API VERSION: 1.2
API SOURCE: NASA/JPL Horizons API



*******************************************************************************
Ephemeris / API_USER Fri Apr  3 11:30:51 2026 Pasadena, USA      / Horizons
*******************************************************************************
Target body name: Neptune (899)                   {source: nep097_merged}
Center body name: Sun (10)                        {source: nep097_merged}
Center-site name: BODY CENTER
*******************************************************************************
Start time      : A.D. 2300-Jan-01 00:00:00.0000 TDB
Stop  time      : A.D. 2399-Dec-18 00:00:00.0000 TDB
Step-size       : 43200 minutes
*******************************************************************************
Center geodetic : 0.0, 0.0, 0.0                   {E-lon(deg),Lat(deg),Alt(km)}
Center cylindric: 0.0, 0.0, 0.0                   {E-lon(deg),Dxy(km),Dz(km)}
Center radii    : 695700.0, 695700.0, 695700.0 km {Equator_a, b, pole_c}
Output units    : AU-D
Calendar mode   : Mixed Julian/Gregorian
Output type     : GEOMETRIC cartesian states
Output format   : 3 (position, velocity, LT, range, range-rate)
Reference frame : Ecliptic of J2000.0
*******************************************************************************
            JDTDB,            Calendar Date (TDB),                      X,                      Y,                      Z,                     VX,                     VY,                     VZ,                     LT,                     RG,                     RR,
**************************************************************************************************************************************************************************************************************************************************************************
$$SOE
2575517.500000000, A.D. 2339-Jun-06 00:00:00.0000,  2.466846822340959E+01, -1.711241237643465E+01, -2.164571218848369E-01,  1.775188942741152E-03,  2.595999090749787E-03, -9.437570866258356E-05,  1.734016866020608E-01,  3.002357133180757E+01, -2.039020089126062E-05,
2575547.500000000, A.D. 2339-Jul-06 00:00:00.0000,  2.472161521647023E+01, -1.703443379379065E+01, -2.192905303180416E-01,  1.767058901439024E-03,  2.602210055074275E-03, -9.429940751933016E-05,  1.733981707297221E-01,  3.002296257738294E+01, -2.071566740951308E-05,
2575577.500000000, A.D. 2339-Aug-05 00:00:00.0000,  2.477452218843855E+01, -1.695627821320751E+01, -2.221219885847113E-01,  1.759143072011522E-03,  2.608440827977912E-03, -9.427259377221768E-05,  1.733946480873638E-01,  3.002235265076577E+01, -2.087042621164294E-05,
2575607.500000000, A.D. 2339-Sep-04 00:00:00.0000,  2.482718843783342E+01, -1.687794521206256E+01, -2.249514708356679E-01,  1.751357131784956E-03,  2.614553795698868E-03, -9.427564323772929E-05,  1.733911146024295E-01,  3.002174084681477E+01, -2.084538480330068E-05,
2575637.500000000, A.D. 2339-Oct-04 00:00:00.0000,  2.487961222428218E+01, -1.679943506783875E+01, -2.277789024262144E-01,  1.743573720331167E-03,  2.620427826379644E-03, -9.428005069183923E-05,  1.733875635385410E-01,  3.002112599916219E+01, -2.067857369787698E-05,
2575667.500000000, A.D. 2339-Nov-03 00:00:00.0000,  2.493179196333556E+01, -1.672074883872301E+01, -2.306042250938054E-01,  1.735665159011616E-03,  2.626068941900205E-03, -9.425193381414403E-05,  1.733839913835387E-01,  3.002050749969647E+01, -2.048138773278525E-05,
2575697.500000000, A.D. 2339-Dec-03 00:00:00.0000,  2.498372592137192E+01, -1.664188779029030E+01, -2.334273064254816E-01,  1.727522246376696E-03,  2.631539053993368E-03, -9.417312899106374E-05,  1.733803944929924E-01,  3.001988471740405E+01, -2.038158213124088E-05,
2575727.500000000, A.D. 2340-Jan-02 00:00:00.0000,  2.503541285657056E+01, -1.656285398320082E+01, -2.362480685845141E-01,  1.719151745114225E-03,  2.636957797029261E-03, -9.404916759224712E-05,  1.733767740331364E-01,  3.001925785421219E+01, -2.044202154546039E-05,
2575757.500000000, A.D. 2340-Feb-01 00:00:00.0000,  2.508685299918332E+01, -1.648364907260213E+01, -2.390665370686691E-01,  1.710643498062629E-03,  2.642497671827543E-03, -9.389984771534775E-05,  1.733731368717498E-01,  3.001862809923992E+01, -2.068362398808597E-05,
2575787.500000000, A.D. 2340-Mar-02 00:00:00.0000,  2.513804661514006E+01, -1.640427332363419E+01, -2.418826887266925E-01,  1.702101549535833E-03,  2.648255128092983E-03, -9.375337857971979E-05,  1.733694856207851E-01,  3.001799590473283E+01, -2.107121137395654E-05,
2575817.500000000, A.D. 2340-Apr-01 00:00:00.0000,  2.518899353578505E+01, -1.632472657377419E+01, -2.446965270926051E-01,  1.693653351168980E-03,  2.654210757439341E-03, -9.364181449103092E-05,  1.733658194903684E-01,  3.001736113392850E+01, -2.148515788037208E-05,
2575847.500000000, A.D. 2340-May-01 00:00:00.0000,  2.523969332835767E+01, -1.624500820210232E+01, -2.475080680626087E-01,  1.685366846969430E-03,  2.660281464194167E-03, -9.357733938080674E-05,  1.733621350310701E-01,  3.001672318957668E+01, -2.182085938642208E-05,
2575877.500000000, A.D. 2340-May-31 00:00:00.0000,  2.529014419453613E+01, -1.616511767674689E+01, -2.503172195891235E-01,  1.677206057924468E-03,  2.666290435797334E-03, -9.355135665189989E-05,  1.733584224932903E-01,  3.001608038358652E+01, -2.201147126007511E-05,
2575907.500000000, A.D. 2340-Jun-30 00:00:00.0000,  2.534034383514869E+01, -1.608505596337838E+01, -2.531239085271100E-01,  1.669111672511270E-03,  2.672075392571269E-03, -9.354290842477908E-05,  1.733546743357172E-01,  3.001543141022033E+01, -2.202002668397163E-05,
2575937.500000000, A.D. 2340-Jul-30 00:00:00.0000,  2.539029078495935E+01, -1.600482472396050E+01, -2.559281153980509E-01,  1.660977177304818E-03,  2.677591832920977E-03, -9.352157466726769E-05,  1.733508891424017E-01,  3.001477602431410E+01, -2.191452797687246E-05,
2575967.500000000, A.D. 2340-Aug-29 00:00:00.0000,  2.543998371451238E+01, -1.592442570323851E+01, -2.587297726531972E-01,  1.652676783034513E-03,  2.682870570613356E-03, -9.346122961507478E-05,  1.733470663076258E-01,  3.001411412099106E+01, -2.182044827498465E-05,
2575997.500000000, A.D. 2340-Sep-28 00:00:00.0000,  2.548942194922447E+01, -1.584386089642475E+01, -2.615288754228604E-01,  1.644166916765566E-03,  2.688035110639663E-03, -9.335318684735597E-05,  1.733432090990240E-01,  3.001344626602456E+01, -2.184272747299867E-05,
2576027.500000000, A.D. 2340-Oct-28 00:00:00.0000,  2.553860562871406E+01, -1.576313123611519E+01, -2.643254351457099E-01,  1.635458395416681E-03,  2.693282807297738E-03, -9.320521014575331E-05,  1.733393214673947E-01,  3.001277314347411E+01, -2.207749526488936E-05,
2576057.500000000, A.D. 2340-Nov-27 00:00:00.0000,  2.558753404153317E+01, -1.568223678853272E+01, -2.671193712168455E-01,  1.626607395170932E-03,  2.698713340548409E-03, -9.304239263012667E-05,  1.733354005543601E-01,  3.001209425842701E+01, -2.252878801021245E-05,
2576087.500000000, A.D. 2340-Dec-27 00:00:00.0000,  2.563620599137257E+01, -1.560117806156482E+01, -2.699106236657318E-01,  1.617753507181863E-03,  2.704331434111377E-03, -9.289812650736580E-05,  1.733314424584333E-01,  3.001140893536166E+01, -2.307855315648926E-05,
2576117.500000000, A.D. 2341-Jan-26 00:00:00.0000,  2.568462049678849E+01, -1.551995561614315E+01, -2.726991448156574E-01,  1.609005855186019E-03,  2.710081833616669E-03, -9.279078504900434E-05,  1.733274444757291E-01,  3.001071670611490E+01, -2.360293642734214E-05,
2576147.500000000, A.D. 2341-Feb-25 00:00:00.0000,  2.573277614710755E+01, -1.543857047429331E+01, -2.754848453961425E-01,  1.600426730090914E-03,  2.715804210189223E-03, -9.272909158994211E-05,  1.733234031261182E-01,  3.001001696812101E+01, -2.396421332968852E-05,
2576177.500000000, A.D. 2341-Mar-27 00:00:00.0000,  2.578067214207550E+01, -1.535702457001275E+01, -2.782677333397329E-01,  1.592027897373415E-03,  2.721344772306269E-03, -9.270391583795311E-05,  1.733193205958095E-01,  3.000931009991034E+01, -2.407295461389157E-05,
2576207.500000000, A.D. 2341-Apr-26 00:00:00.0000,  2.582830864355367E+01, -1.527531924547100E+01, -2.810478459764948E-01,  1.583702480513941E-03,  2.726652623477493E-03, -9.268331342262070E-05,  1.733152020184917E-01,  3.000859699035351E+01, -2.399593634718099E-05,
2576237.500000000, A.D. 2341-May-26 00:00:00.0000,  2.587568536233250E+01, -1.519345520686213E+01, -2.838251585332824E-01,  1.575297844461317E-03,  2.731736048374563E-03, -9.263580192431974E-05,  1.733110483940041E-01,  3.000787781256733E+01, -2.387058311870449E-05,
2576267.500000000, A.D. 2341-Jun-25 00:00:00.0000,  2.592280173692864E+01, -1.511143301276705E+01, -2.865996648406085E-01,  1.566706984931793E-03,  2.736685795476572E-03, -9.254527490313277E-05,  1.733068589338901E-01,  3.000715243003480E+01, -2.383718621702498E-05,
2576297.500000000, A.D. 2341-Jul-25 00:00:00.0000,  2.596965671702938E+01, -1.502925250326337E+01, -2.893712976553742E-01,  1.557841654259122E-03,  2.741651721819457E-03, -9.240474956025441E-05,  1.733026283222037E-01,  3.000641992232836E+01, -2.404897825901953E-05,
2576327.500000000, A.D. 2341-Aug-24 00:00:00.0000,  2.601624797307270E+01, -1.494691401753502E+01, -2.921399087463663E-01,  1.548727204437629E-03,  2.746724357089952E-03, -9.223213244299335E-05,  1.732983462937209E-01,  3.000567851207962E+01, -2.452992739184238E-05,
2576357.500000000, A.D. 2341-Sep-23 00:00:00.0000,  2.606257336316053E+01, -1.486441924586804E+01, -2.949054271791250E-01,  1.539517471141609E-03,  2.751944732464283E-03, -9.205945697109868E-05,  1.732940073427336E-01,  3.000492724600472E+01, -2.516667911362081E-05,
2576387.500000000, A.D. 2341-Oct-23 00:00:00.0000,  2.610863167177080E+01, -1.478177005628156E+01, -2.976678123664819E-01,  1.530362938410116E-03,  2.757292754905661E-03, -9.191648154530928E-05,  1.732896109969357E-01,  3.000416604232644E+01, -2.581723547034276E-05,
